STARLINK-5194           
1 54186U 22141AF  25184.94875685 -.00000461  00000+0 -10874-4 0  9992
2 54186  53.2173  30.9573 0001247  84.9454 275.1680 15.08827210148446
STARLINK-5240           
1 54187U 22141AG  25184.84842380 -.00001083  00000+0 -49961-4 0  9998
2 54187  53.2203  41.0373 0001417  96.5672 263.5482 15.08825878148520
STARLINK-5238           
1 54188U 22141AH  25184.81257911  .00000068  00000+0  22380-4 0  9992
2 54188  53.2185  31.5310 0001316  83.8468 276.2674 15.08835986148429
STARLINK-5281           
1 54190U 22141AK  25184.80889704 -.00000229  00000+0  36966-5 0  9991
2 54190  53.2179  31.5091 0001381  84.2525 275.8624 15.08831850148428
STARLINK-4619           
1 54191U 22141AL  25184.88618909 -.00000272  00000+0  10137-5 0  9997
2 54191  53.2190  31.2802 0001359  90.6222 269.4925 15.08836837148433
STARLINK-5268           
1 54192U 22141AM  25185.56691321  .00001983  00000+0  14259-3 0  9999
2 54192  53.2192  27.7130 0001273  90.1160 269.9978 15.08849787148779
STARLINK-5263           
1 54193U 22141AN  25184.86776476  .00000298  00000+0  36799-4 0  9999
2 54193  53.2183  31.1670 0001279  91.0863 269.0276 15.08833864148663
STARLINK-5271           
1 54194U 22141AP  25184.86039213  .00000651  00000+0  58980-4 0  9990
2 54194  53.2186  31.1198 0001340  93.6093 266.5052 15.08833076148663
STARLINK-5258           
1 54195U 22141AQ  25184.93769111  .00000204  00000+0  30907-4 0  9999
2 54195  53.2183  30.8914 0001275  91.1722 268.9416 15.08833025148442
STARLINK-5237           
1 54196U 22141AR  25184.85302328  .00000008  00000+0  18597-4 0  9997
2 54196  53.2182  31.0744 0001397  86.1673 273.9479 15.08837193148669
STARLINK-5246           
1 54198U 22141AT  25184.84933953  .00000379  00000+0  41902-4 0  9999
2 54198  53.2190  31.0545 0001566  90.0662 270.0510 15.08837007148667
STARLINK-5244           
1 54199U 22141AU  25184.85670918 -.00000310  00000+0 -13806-5 0  9990
2 54199  53.2185  31.0959 0001362  93.9036 266.2112 15.08837518148664
STARLINK-5250           
1 54200U 22141AV  25184.84197036 -.00000324  00000+0 -22857-5 0  9998
2 54200  53.2193  31.0072 0001411  88.2625 271.8529 15.08838655148665
STARLINK-5199           
1 54201U 22141AW  25184.99656192 -.00000677  00000+0 -24451-4 0  9990
2 54201  53.2182  30.5416 0001349  93.3277 266.7869 15.08834528148687
STARLINK-5205           
1 54202U 22141AX  25184.83460047  .00000052  00000+0  21379-4 0  9997
2 54202  53.2188  30.9600 0001389  88.6071 271.5081 15.08839703148439
STARLINK-5247           
1 54203U 22141AY  25184.84565931 -.00000535  00000+0 -15528-4 0  9994
2 54203  53.2186  31.0280 0001304  89.5647 270.5494 15.08833522148665
STARLINK-5241           
1 54204U 22141AZ  25184.88978679  .00000929  00000+0  76437-4 0  9997
2 54204  53.2185  30.5939 0001273  91.5649 268.5489 15.08837742148670
STARLINK-5249           
1 54205U 22141BA  25184.89713274  .00003918  00000+0  26396-3 0  9996
2 54205  53.2192  30.6374 0001287 107.1460 252.9674 15.08863659148447
STARLINK-5264           
1 54206U 22141BB  25184.77711859 -.00000118  00000+0  10697-4 0  9999
2 54206  53.2190 356.3715 0001194  82.5506 277.5622 15.08836685148914
STARLINK-5262           
1 54207U 22141BC  25184.95970992  .00000390  00000+0  42577-4 0  9998
2 54207  53.2191  30.3202 0001361  83.1812 276.9335 15.08838997148685
STARLINK-5255           
1 54208U 22141BD  25184.79830800  .00000060  00000+0  21884-4 0  9996
2 54208  53.2187   6.4835 0001549  87.8680 272.2489 15.08832031148771
STARLINK-5259           
1 54209U 22141BE  25184.83183836  .00000011  00000+0  18793-4 0  9993
2 54209  53.2188  20.9456 0001271  94.2478 265.8659 15.08834142148572
STARLINK-5464           
1 54758U 22175A   25185.13780219  .00001144  00000+0  89983-4 0  9998
2 54758  53.2187  75.1082 0001515  87.2503 272.8662 15.08835830139026
STARLINK-5215           
1 54759U 22175B   25184.94276957  .00000289  00000+0  36243-4 0  9996
2 54759  53.2185  76.0163 0001370  90.3178 269.7972 15.08835294142439
STARLINK-5220           
1 54760U 22175C   25184.94046523 -.00000394  00000+0 -66381-5 0  9998
2 54760  53.2176  80.9888 0001358  89.2344 270.8804 15.08833706142362
STARLINK-5202           
1 54761U 22175D   25185.01038518 -.00000230  00000+0  36140-5 0  9991
2 54761  53.2178  80.7141 0001474  89.4107 270.7054 15.08836919140210
STARLINK-5214           
1 54762U 22175E   25184.86316600 -.00000024  00000+0  16599-4 0  9991
2 54762  53.2182  81.2181 0001471  90.8755 269.2406 15.08838650142353
STARLINK-5191           
1 54763U 22175F   25184.93677647  .00000415  00000+0  44176-4 0  9996
2 54763  53.2179  80.9657 0001736  92.1687 267.9504 15.08834336142369
STARLINK-5458           
1 54764U 22175G   25184.45194607 -.00000227  00000+0  38259-5 0  9992
2 54764  53.2178  82.9179 0001423  89.2984 270.8171 15.08839797142291
STARLINK-5471           
1 54766U 22175J   25184.85579682  .00000052  00000+0  21335-4 0  9999
2 54766  53.2186  81.1711 0001510  97.1324 262.9839 15.08837415142353
STARLINK-5472           
1 54767U 22175K   25184.85211367 -.00000471  00000+0 -11499-4 0  9990
2 54767  53.2177  81.1486 0001371  91.8671 268.2479 15.08835490142354
STARLINK-5444           
1 54768U 22175L   25184.95570281 -.00000386  00000+0 -61441-5 0  9993
2 54768  53.2178  66.1138 0001450  94.8610 265.2548 15.08835494142579
STARLINK-5448           
1 54770U 22175N   25184.93631885  .00000254  00000+0  34034-4 0  9991
2 54770  53.2179  65.9991 0001623  94.2705 265.8472 15.08840733142572
STARLINK-5451           
1 54771U 22175P   25184.83599477  .00000061  00000+0  21935-4 0  9993
2 54771  53.2185  76.0676 0001483  91.8962 268.2200 15.08837360142427
STARLINK-5452           
1 54772U 22175Q   25185.06511324  .00000657  00000+0  59353-4 0  9991
2 54772  53.2180  65.3815 0001286  90.4991 269.6148 15.08840926140434
STARLINK-5453           
1 54773U 22175R   25184.97724424 -.00002303  00000+0 -12673-3 0  9993
2 54773  53.2181  80.5088 0001507  81.8124 278.3039 15.08820483140213
STARLINK-5454           
1 54774U 22175S   25185.08714187 -.00000663  00000+0 -23596-4 0  9996
2 54774  53.2177  64.8170 0001581  92.4015 267.7158 15.08835148140448
STARLINK-5465           
1 54775U 22175T   25185.10602007 -.00000342  00000+0 -34134-5 0  9992
2 54775  53.2175  79.8902 0001425  90.0317 270.0838 15.08835819140236
STARLINK-5470           
1 54776U 22175U   25185.08391543  .00000869  00000+0  72693-4 0  9993
2 54776  53.2192  79.7635 0001429 101.5915 258.5238 15.08830508140239
STARLINK-5468           
1 54777U 22175V   25184.70489092 -.00001974  00000+0 -10595-3 0  9991
2 54777  53.2183  81.6547 0001599  85.4808 274.6367 15.08850609142332
STARLINK-5450           
1 54778U 22175W   25185.05774649  .00000642  00000+0  58443-4 0  9990
2 54778  53.2183  65.3376 0001402  85.0703 275.0449 15.08839082140432
STARLINK-5447           
1 54779U 22175X   25184.86271271  .00000547  00000+0  52456-4 0  9994
2 54779  53.2186  66.2504 0001456  86.3285 273.7874 15.08836629142564
STARLINK-5449           
1 54780U 22175Y   25184.84429088  .00000534  00000+0  51654-4 0  9990
2 54780  53.2196  66.1343 0001402  91.9594 268.1559 15.08833598142563
STARLINK-5443           
1 54781U 22175Z   25184.98782418  .00000310  00000+0  37585-4 0  9994
2 54781  53.2187  65.6044 0001446  85.0788 275.0369 15.08836441140422
STARLINK-5439           
1 54783U 22175AB  25184.85166118  .00000641  00000+0  58384-4 0  9992
2 54783  53.2187  66.1836 0001378  88.2105 271.9045 15.08835326142565
STARLINK-5442           
1 54784U 22175AC  25184.89992966  .00000627  00000+0  57480-4 0  9995
2 54784  53.2180  80.7394 0001349  88.2781 271.8366 15.08837973142361
STARLINK-5440           
1 54785U 22175AD  25184.96569584  .00002064  00000+0  14768-3 0  9998
2 54785  53.2187  25.5573 0001593 138.3267 221.7846 15.08858448140985
STARLINK-5441           
1 54787U 22175AF  25184.96248769 -.00000339  00000+0 -31827-5 0  9991
2 54787  53.2184  80.4199 0001462  85.2305 274.8855 15.08836133142377
STARLINK-5399           
1 54788U 22175AG  25184.84060644  .00000022  00000+0  19467-4 0  9995
2 54788  53.2188  66.1148 0001348  94.2410 265.8736 15.08832650142566
STARLINK-5446           
1 54789U 22175AH  25185.03884815  .00000075  00000+0  22787-4 0  9999
2 54789  53.2182  50.1232 0001304  90.3804 269.7337 15.08837858140646
STARLINK-5445           
1 54790U 22175AJ  25184.89947643 -.00000122  00000+0  10441-4 0  9991
2 54790  53.2187  65.7717 0001465  95.3045 264.8115 15.08831588142571
STARLINK-5425           
1 54791U 22175AK  25184.84797874 -.00000767  00000+0 -30146-4 0  9996
2 54791  53.2193  66.1611 0001167  89.2786 270.8340 15.08836177142565
STARLINK-5431           
1 54792U 22175AL  25184.95511904 -.00000098  00000+0  11944-4 0  9998
2 54792  53.2184  80.3731 0001405  89.5412 270.5741 15.08834320142370
STARLINK-5433           
1 54793U 22175AM  25184.84889554  .00000513  00000+0  50340-4 0  9990
2 54793  53.2181  56.2213 0001404  90.9642 269.1511 15.08842567142703
STARLINK-5436           
1 54795U 22175AP  25184.83692142 -.00000086  00000+0  12682-4 0  9999
2 54795  53.2188  66.0912 0001343  92.0269 268.0877 15.08832054142564
STARLINK-5415           
1 54796U 22175AQ  25184.89579117  .00000377  00000+0  41804-4 0  9992
2 54796  53.2184  65.7473 0001515 101.1722 258.9441 15.08834801142574
STARLINK-5435           
1 54797U 22175AR  25185.10697467 -.00000286  00000+0  13868-6 0  9998
2 54797  53.2171  79.8935 0001608  94.0120 266.1055 15.08840684140234
STARLINK-5420           
1 54798U 22175AS  25184.95927139  .00000866  00000+0  72521-4 0  9995
2 54798  53.2192  55.4796 0001405  89.3170 270.7983 15.08838864142724
STARLINK-5421           
1 54799U 22175AT  25184.84521244  .00000701  00000+0  62118-4 0  9990
2 54799  53.2177  56.1901 0001401  90.9690 269.1463 15.08840390142705
